NORAD_CAT_ID,OBJECT_NAME,OBJECT_TYPE,EPOCH,MEAN_MOTION,ECCENTRICITY,INCLINATION,RA_OF_ASC_NODE,ARG_OF_PERICENTER,MEAN_ANOMALY,BSTAR,MEAN_MOTION_DOT,MEAN_MOTION_DDOT,TLE_LINE0,TLE_LINE1,TLE_LINE2,SEMIMAJOR_AXIS,PERIOD,APOGEE,PERIGEE,DECAYED
53030.0,STARLINK-4160,PAYLOAD,2022-10-13 06:00:00,15.08812241,0.0001403,53.2165,266.1258,71.01100000000002,228.7456,0.0035606,0.00056792,0.0,0 STARLINK-4160,1 53030U 22076AW  22286.25001157  .00056792  00000-0  35606-2 0  9990,2 53030  53.2165 266.1258 0001403  71.0110 228.7456 15.08812241 15746,6917.965,95.439,540.8009999999998,538.86,0.0
53030.0,STARLINK-4160,PAYLOAD,2022-10-13 14:00:01,15.08910329,0.0001240999999999,53.2168,264.6326,75.545,235.7826,-0.0064386,-0.00101511,0.0,0 STARLINK-4160,1 53030U 22076AW  22286.58334491 -.00101511  00000-0 -64386-2 0  9995,2 53030  53.2168 264.6326 0001241  75.5450 235.7826 15.08910329  1306,6917.665,95.433,540.389,538.672,0.0
53030.0,STARLINK-4160,PAYLOAD,2022-10-13 20:00:01,15.08836292,0.0001215,53.2172,263.5117,85.635,144.4941,-1.2009e-05,-4.79e-06,0.0,0 STARLINK-4160,1 53030U 22076AW  22286.83335648 -.00000479  00000-0 -12009-4 0  9996,2 53030  53.2172 263.5117 0001215  85.6350 144.4941 15.08836292 15832,6917.892,95.438,540.597,538.9159999999998,0.0
53030.0,STARLINK-4160,PAYLOAD,2022-10-13 22:00:00,15.08835159,0.0001231999999999,53.2175,263.1378,86.4474,236.5169,0.00020594,2.991e-05,0.0,0 STARLINK-4160,1 53030U 22076AW  22286.91667824  .00002991  00000-0  20594-3 0  9995,2 53030  53.2175 263.1378 0001232  86.4474 236.5169 15.08835159  1308,6917.895,95.438,540.612,538.908,0.0
53030.0,STARLINK-4160,PAYLOAD,2022-10-14 14:00:01,15.08849293,0.0001320999999999,53.2168,260.144,81.6263,264.5164,-0.0012881,-0.00020735,0.0,0 STARLINK-4160,1 53030U 22076AW  22287.58334491 -.00020735  00000-0 -12881-2 0  9997,2 53030  53.2168 260.1440 0001321  81.6263 264.5164 15.08849293  1309,6917.852,95.437,540.631,538.803,0.0
53030.0,STARLINK-4160,PAYLOAD,2022-10-14 22:00:00,15.08845407,0.0001371,53.2163,258.6424,80.8481,276.8907,-0.00068137,-0.00011117,0.0,0 STARLINK-4160,1 53030U 22076AW  22287.91667824 -.00011117  00000-0 -68137-3 0  9993,2 53030  53.2163 258.6424 0001371  80.8481 276.8907 15.08845407 15990,6917.864000000001,95.437,540.677,538.78,0.0
53030.0,STARLINK-4160,PAYLOAD,2022-10-15 14:00:01,15.08863759,0.0001375999999999,53.2153,255.6452,72.6769,308.3001,-0.00236,-0.00037675,0.0,0 STARLINK-4160,1 53030U 22076AW  22288.58334491 -.00037675  00000-0 -23600-2 0  9990,2 53030  53.2153 255.6452 0001376  72.6769 308.3001 15.08863759  1306,6917.808000000001,95.436,540.625,538.721,0.0
53030.0,STARLINK-4160,PAYLOAD,2022-10-15 22:00:01,15.08848882,0.0001412,53.2155,254.148,80.0603,312.5815,-0.0021064,-0.00033663,0.0,0 STARLINK-4160,1 53030U 22076AW  22288.91668981 -.00033663  00000-0 -21064-2 0  9996,2 53030  53.2155 254.1480 0001412  80.0603 312.5815 15.08848882  1304,6917.853,95.437,540.695,538.741,0.0
53030.0,STARLINK-4160,PAYLOAD,2022-10-16 14:00:01,15.08830379,0.0001496,53.2156,251.1561,74.4897,341.2316,-0.00069261,-0.00011291,0.0,0 STARLINK-4160,1 53030U 22076AW  22289.58334491 -.00011291  00000-0 -69261-3 0  9991,2 53030  53.2156 251.1561 0001496  74.4897 341.2316 15.08830379  1303,6917.91,95.438,540.81,538.74,0.0
53030.0,STARLINK-4160,PAYLOAD,2022-10-16 22:00:00,15.08833522,0.0001508,53.2159,249.6604,81.5477,345.7488,0.0020022,0.00031715,0.0,0 STARLINK-4160,1 53030U 22076AW  22289.91667824  .00031715  00000-0  20022-2 0  9999,2 53030  53.2159 249.6604 0001508  81.5477 345.7488 15.08833522  1305,6917.9,95.438,540.808,538.722,0.0
53030.0,STARLINK-4160,PAYLOAD,2022-10-17 06:00:00,15.08845635,0.0001544,53.216,248.1664,71.4756,7.4151,-0.0013031,-0.0002097,0.0,0 STARLINK-4160,1 53030U 22076AW  22290.25001157 -.00020970  00000-0 -13031-2 0  9994,2 53030  53.2160 248.1664 0001544  71.4756   7.4151 15.08845635 16342,6917.863,95.437,540.7959999999998,538.66,0.0
53030.0,STARLINK-4160,PAYLOAD,2022-10-17 14:00:01,15.08847053,0.0001396999999999,53.2161,246.6676,75.3087,15.1856,-0.00034832,-5.828e-05,0.0,0 STARLINK-4160,1 53030U 22076AW  22290.58334491 -.00005828  00000-0 -34832-3 0  9998,2 53030  53.2161 246.6676 0001397  75.3087  15.1856 15.08847053  1309,6917.859,95.437,540.69,538.757,0.0
53030.0,STARLINK-4160,PAYLOAD,2022-10-17 22:00:00,15.08861368,0.0001472,53.2162,245.1716,82.3411,19.7478,-0.0015104,-0.0002426,0.0,0 STARLINK-4160,1 53030U 22076AW  22290.91667824 -.00024260  00000-0 -15104-2 0  9995,2 53030  53.2162 245.1716 0001472  82.3411  19.7478 15.08861368  1307,6917.815,95.436,540.698,538.6619999999998,0.0
53030.0,STARLINK-4160,PAYLOAD,2022-10-18 00:00:00,15.08858684,0.0001481,53.2164,244.799,80.7923,114.2004,-0.0017515999999999,-0.00028071,0.0,0 STARLINK-4160,1 53030U 22076AW  22291.00001157 -.00028071  00000-0 -17516-2 0  9990,2 53030  53.2164 244.7990 0001481  80.7923 114.2004 15.08858684 16464,6917.823,95.436,540.7130000000002,538.664,0.0
53030.0,STARLINK-4160,PAYLOAD,2022-10-18 14:00:01,15.08820756,0.0001365999999999,53.2157,242.1778,77.6119,47.6532,-0.00047982,-7.912e-05,0.0,0 STARLINK-4160,1 53030U 22076AW  22291.58334491 -.00007912  00000-0 -47982-3 0  9995,2 53030  53.2157 242.1778 0001366  77.6119  47.6532 15.08820756  1307,6917.939,95.439,540.749,538.859,0.0
53030.0,STARLINK-4160,PAYLOAD,2022-10-18 22:00:00,15.08834576,0.0001391,53.2159,240.6812,82.8291,54.0037,0.00062189,9.622e-05,0.0,0 STARLINK-4160,1 53030U 22076AW  22291.91667824  .00009622  00000-0  62189-3 0  9995,2 53030  53.2159 240.6812 0001391  82.8291  54.0037 15.08834576  1305,6917.897,95.438,540.724,538.8,0.0
53030.0,STARLINK-4160,PAYLOAD,2022-10-19 14:00:01,15.08868731,0.0001301,53.2154,237.6886,80.704,79.3208,-0.0027091999999999,-0.0004318,0.0,0 STARLINK-4160,1 53030U 22076AW  22292.58334491 -.00043180  00000-0 -27092-2 0  9992,2 53030  53.2154 237.6886 0001301  80.7040  79.3208 15.08868731  1307,6917.793000000002,95.436,540.558,538.758,0.0
53030.0,STARLINK-4160,PAYLOAD,2022-10-19 22:00:00,15.08848849,0.0001307,53.2156,236.1922,85.1536,86.4797,0.00033238,5.007e-05,0.0,0 STARLINK-4160,1 53030U 22076AW  22292.91667824  .00005007  00000-0  33238-3 0  9992,2 53030  53.2156 236.1922 0001307  85.1536  86.4797 15.08848849  1309,6917.853,95.437,540.623,538.814,0.0
53030.0,STARLINK-4160,PAYLOAD,2022-10-20 14:00:01,15.08832512,0.0001373,53.2156,233.2008,83.0874,111.7424,0.00046795,7.166e-05,0.0,0 STARLINK-4160,1 53030U 22076AW  22293.58334491  .00007166  00000-0  46795-3 0  9997,2 53030  53.2156 233.2008 0001373  83.0874 111.7424 15.08832512  1306,6917.903,95.438,540.7180000000002,538.818,0.0
53030.0,STARLINK-4160,PAYLOAD,2022-10-20 22:00:00,15.08856279,0.0001505,53.2156,231.7045,86.9793,119.43,-0.0027495,-0.0004379999999999,0.0,0 STARLINK-4160,1 53030U 22076AW  22293.91667824 -.00043800  00000-0 -27495-2 0  9995,2 53030  53.2156 231.7045 0001505  86.9793 119.4300 15.08856279  1303,6917.831,95.437,540.737,538.654,0.0
53030.0,STARLINK-4160,PAYLOAD,2022-10-21 14:00:01,15.08836012,0.0001488,53.2156,228.7116,84.4905,145.1016,0.0010700999999999,0.00016782,0.0,0 STARLINK-4160,1 53030U 22076AW  22294.58334491  .00016782  00000-0  10701-2 0  9999,2 53030  53.2156 228.7116 0001488  84.4905 145.1016 15.08836012  1309,6917.893,95.438,540.7869999999998,538.7280000000002,0.0
53030.0,STARLINK-4160,PAYLOAD,2022-10-21 22:00:00,15.08867281,0.0001521999999999,53.2152,227.2139,85.4516,155.7264,-0.002863,-0.00045598,0.0,0 STARLINK-4160,1 53030U 22076AW  22294.91667824 -.00045598  00000-0 -28630-2 0  9994,2 53030  53.2152 227.2139 0001522  85.4516 155.7264 15.08867281 17055,6917.797,95.436,540.715,538.609,0.0
53030.0,STARLINK-4160,PAYLOAD,2022-10-22 14:00:01,15.08816896,0.0001325,53.2155,224.2206,81.5864,182.7967,0.00093355,0.00014591,0.0,0 STARLINK-4160,1 53030U 22076AW  22295.58334491  .00014591  00000-0  93355-3 0  9993,2 53030  53.2155 224.2206 0001325  81.5864 182.7967 15.08816896 17151,6917.951,95.439,540.7330000000002,538.899,0.0
53030.0,STARLINK-4160,PAYLOAD,2022-10-22 22:00:00,15.08853777,0.0001402,53.2156,222.7246,83.0586,192.8999,7.2622e-05,8.68e-06,0.0,0 STARLINK-4160,1 53030U 22076AW  22295.91667824  .00000868  00000-0  72622-4 0  9996,2 53030  53.2156 222.7246 0001402  83.0586 192.8999 15.08853777  1309,6917.8380000000025,95.437,540.673,538.7330000000002,0.0
53030.0,STARLINK-4160,PAYLOAD,2022-10-23 08:00:01,15.0887774,0.0001347,53.2155,220.8549,72.4866,308.0535,-0.0010894,-0.00017602,0.0,0 STARLINK-4160,1 53030U 22076AW  22296.33335648 -.00017602  00000-0 -10894-2 0  9996,2 53030  53.2155 220.8549 0001347  72.4866 308.0535 15.08877740 17269,6917.765,95.435,540.562,538.698,0.0
53030.0,STARLINK-4160,PAYLOAD,2022-10-23 14:00:01,15.08835821,0.0001295,53.2161,219.7313,79.8555,219.3495,0.0020991,0.00033273,0.0,0 STARLINK-4160,1 53030U 22076AW  22296.58334491  .00033273  00000-0  20991-2 0  9997,2 53030  53.2161 219.7313 0001295  79.8555 219.3495 15.08835821  1301,6917.893,95.438,540.654,538.862,0.0
53030.0,STARLINK-4160,PAYLOAD,2022-10-23 22:00:00,15.08883647,0.0001392,53.2162,218.2353,79.8967,230.905,-0.004986,-0.00078866,0.0,0 STARLINK-4160,1 53030U 22076AW  22296.91667824 -.00078866  00000-0 -49860-2 0  9998,2 53030  53.2162 218.2353 0001392  79.8967 230.9050 15.08883647  1300,6917.746999999999,95.435,540.575,538.649,0.0
53030.0,STARLINK-4160,PAYLOAD,2022-10-24 06:00:00,15.08821408,0.0001462,53.2163,216.7402,70.8851,251.5365,-0.0023814,-0.00037969,0.0,0 STARLINK-4160,1 53030U 22076AW  22297.25001157 -.00037969  00000-0 -23814-2 0  9997,2 53030  53.2163 216.7402 0001462  70.8851 251.5365 15.08821408 17403,6917.937,95.439,540.814,538.7909999999998,0.0
53030.0,STARLINK-4160,PAYLOAD,2022-10-24 14:00:01,15.08752755,0.0001473,53.2166,215.2421,80.1062,253.8841,0.003722,0.00059304,0.0,0 STARLINK-4160,1 53030U 22076AW  22297.58334491  .00059304  00000-0  37220-2 0  9994,2 53030  53.2166 215.2421 0001473  80.1062 253.8841 15.08752755  1305,6918.147,95.443,541.031,538.993,0.0
